SITRO-AIS 6 (CHIRKIN)   
1 57192U 23091AC  26196.56907572  .00005724  00000+0  22218-3 0  9999
2 57192  97.5053 259.7145 0011118  15.2660 344.8911 15.26442570168618
SITRO-AIS 8 (ANOKHIN)   
1 57193U 23091AD  26196.62076023  .00008333  00000+0  26471-3 0  9999
2 57193  97.5043 262.5076 0009482   6.6044 353.5321 15.32865349168807
SITRO-AIS 7 (FARTUSHNIY)
1 57194U 23091AE  26196.57814956  .00005414  00000+0  21241-3 0  9996
2 57194  97.5049 259.5336 0011103  16.5322 343.6276 15.26115953168600
AVION KALUGA 650        
1 57195U 23091AF  26196.59198652  .00003038  00000+0  14151-3 0  9999
2 57195  97.5075 256.0561 0010418  21.2176 338.9489 15.20635069168343
HORS 2                  
1 57196U 23091AG  26196.57219167  .00007653  00000+0  24576-3 0  9992
2 57196  97.5076 264.0002 0006796 353.7138   6.4018 15.32568487168874
A-SEANSAT-PG1           
1 57197U 23091AH  26196.58353675  .00011033  00000+0  29822-3 0  9993
2 57197  97.5069 266.7880 0005620 347.6458  12.4648 15.37892916169073
SITRO-AIS 10 (BURDAEV)  
1 57199U 23091AK  26196.59498286  .00012197  00000+0  31132-3 0  9993
2 57199  97.5069 267.8356 0004823 339.6152  20.4900 15.39638022169136
SITRO-AIS 9 (SHCHUKIN)  
1 57201U 23091AM  26196.63065327  .00011990  00000+0  31124-3 0  9999
2 57201  97.5067 267.5794 0005099 339.8733  20.2310 15.39123184169124
UTMN 2 (RS27S)          
1 57203U 23091AP  26196.59663667  .00007835  00000+0  25044-3 0  9994
2 57203  97.5075 264.2224 0006680 348.7449  11.3643 15.32708708168894
SITRO-AIS 12 (SMIRENNIY)
1 57204U 23091AQ  26196.61585484  .00012207  00000+0  31380-3 0  9997
2 57204  97.5081 268.0493 0004670 332.3030  27.7966 15.39419411169149
SITRO-AIS 11 (SHEFFER)  
1 57208U 23091AU  26196.62125258  .00012509  00000+0  31689-3 0  9998
2 57208  97.5080 268.3196 0004553 331.3953  28.7042 15.39862779169165
H2SAT (HEINRICH HERTZ)  
1 57213U 23093A   26196.55720675 -.00000009  00000+0  00000+0 0  9994
2 57213   0.0246  98.8333 0000413  47.6496 348.1949  1.00270363 11204
KUZGTU 1 (RS47S)        
1 57217U 23091AV  26196.61115962  .00006982  00000+0  23927-3 0  9992
2 57217  97.5051 261.3906 0010031   4.8276 355.3059 15.30476538168726
QIANKUN-1               
1 57422U 23103B   26196.55442521  .00004724  16490-5  59918-5 0  9990
2 57422  96.1426 239.3970 0035419 132.2623 228.1677 16.07667897171856
FENGYUN 3F              
1 57490U 23111A   26196.58307852  .00000014  00000+0  27088-4 0  9998
2 57490  98.6825 266.0611 0001266  76.2327 283.8991 14.19943437152899
HJ-2F                   
1 57519U 23116A   26196.64463042  .00003707  00000+0  16202-3 0  9993
2 57519  97.3845 201.3755 0006575 310.8733  49.1933 15.22697785163085
XRISM                   
1 57800U 23137A   26196.36830794  .00001997  00000+0  10585-3 0  9997
2 57800  31.0008 177.0225 0007841 248.1772 111.8032 15.12669567157130
METEOR-M2 4             
1 59051U 24039A   26196.60158115 -.00000026  00000+0  78886-5 0  9999
2 59051  98.7025 155.5449 0008260  87.7614 272.4510 14.22432128123304
GRBBETA                 
1 60237U 24128C   26196.29220616  .00001683  00000+0  12540-3 0  9999
2 60237  61.9898 117.6465 0037024 140.6791 219.7001 15.06808761110504
TRANSPORTER-11 OBJECT A 
1 60468U 24149A   26196.15354684  .00004748  00000+0  14980-3 0  9991
2 60468  97.3729 276.0033 0004884 116.7853 243.3889 15.33338857106346
WARATAH SEED-1          
1 60469U 24149B   26196.18383460  .00007683  00000+0  21714-3 0  9993
2 60469  97.3687 276.7964 0003218 120.8221 239.3341 15.36618101106417
PHISAT 2                
1 60470U 24149C   26196.21246150  .00004908  00000+0  16426-3 0  9994
2 60470  97.3756 275.2781 0003172 124.7003 235.4538 15.31425010106287
LEMUR-2-TOMATOKECHUP    
1 60471U 24149D   26196.17962130  .00006176  00000+0  17522-3 0  9990
2 60471  97.3800 278.3072 0003289 122.7219 237.4342 15.36582532106464
CONNECTA IOT-1          
1 60472U 24149E   26196.20440071  .00002169  00000+0  93190-4 0  9994
2 60472  97.3753 272.0248 0002793 142.6007 217.5425 15.23741800106061
LOPEN                   
1 60473U 24149F   26196.19896090  .00008717  00000+0  21726-3 0  9999
2 60473  97.3779 279.7997 0002843 134.5027 225.6452 15.40464186106577
ROCK                    
1 60474U 24149G   26195.73098765  .00008979  00000+0  22387-3 0  9996
2 60474  97.3777 279.3416 0003137 133.2814 226.8694 15.40443195106506
CONNECTA IOT-3          
1 60475U 24149H   26196.15987435  .00002221  00000+0  95300-4 0  9995
2 60475  97.3728 271.7253 0003916 142.9789 217.1719 15.23755203106060
QUBE                    
1 60476U 24149J   26196.48888650  .00015116  00000+0  28570-3 0  9992
2 60476  97.3778 283.4942 0003351 128.5798 231.5753 15.48513012106845
WREN-1                  
1 60478U 24149L   26196.23112381  .00012519  00000+0  28939-3 0  9991
2 60478  97.3767 280.6585 0005281 150.6924 209.4621 15.42628342106641
