OBJECT_NAME,OBJECT_ID,EPOCH,MEAN_MOTION,ECCENTRICITY,INCLINATION,RA_OF_ASC_NODE,ARG_OF_PERICENTER,MEAN_ANOMALY,EPHEMERIS_TYPE,CLASSIFICATION_TYPE,NORAD_CAT_ID,ELEMENT_SET_NO,REV_AT_EPOCH,BSTAR,MEAN_MOTION_DOT,MEAN_MOTION_DDOT
SITRO-AIS 6 (CHIRKIN),2023-091AC,2026-07-15T13:39:28.142208,15.26442570,.00111183,97.5053,259.7145,15.2660,344.8911,0,U,57192,999,16861,.22217807E-3,.5724E-4,0
SITRO-AIS 8 (ANOKHIN),2023-091AD,2026-07-15T14:53:53.683872,15.32865349,.00094825,97.5043,262.5076,6.6044,353.5321,0,U,57193,999,16880,.26470734E-3,.8333E-4,0
SITRO-AIS 7 (FARTUSHNIY),2023-091AE,2026-07-15T13:52:32.121984,15.26115953,.00111035,97.5049,259.5336,16.5322,343.6276,0,U,57194,999,16860,.21240731E-3,.5414E-4,0
AVION KALUGA 650,2023-091AF,2026-07-15T14:12:27.635328,15.20635069,.00104188,97.5075,256.0561,21.2176,338.9489,0,U,57195,999,16834,.14150505E-3,.3038E-4,0
HORS 2,2023-091AG,2026-07-15T13:43:57.360288,15.32568487,.00067963,97.5076,264.0002,353.7138,6.4018,0,U,57196,999,16887,.24575948E-3,.7653E-4,0
A-SEANSAT-PG1,2023-091AH,2026-07-15T14:00:17.575200,15.37892916,.00056206,97.5069,266.7880,347.6458,12.4648,0,U,57197,999,16907,.29821617E-3,.11033E-3,0
SITRO-AIS 10 (BURDAEV),2023-091AK,2026-07-15T14:16:46.519104,15.39638022,.00048231,97.5069,267.8356,339.6152,20.4900,0,U,57199,999,16913,.31132003E-3,.12197E-3,0
SITRO-AIS 9 (SHCHUKIN),2023-091AM,2026-07-15T15:08:08.442528,15.39123184,.00050994,97.5067,267.5794,339.8733,20.2310,0,U,57201,999,16912,.31124156E-3,.1199E-3,0
UTMN 2 (RS27S),2023-091AP,2026-07-15T14:19:09.408288,15.32708708,.00066806,97.5075,264.2224,348.7449,11.3643,0,U,57203,999,16889,.25043854E-3,.7835E-4,0
SITRO-AIS 12 (SMIRENNIY),2023-091AQ,2026-07-15T14:46:49.858176,15.39419411,.00046705,97.5081,268.0493,332.3030,27.7966,0,U,57204,999,16914,.31379733E-3,.12207E-3,0
SITRO-AIS 11 (SHEFFER),2023-091AU,2026-07-15T14:54:36.222912,15.39862779,.00045532,97.5080,268.3196,331.3953,28.7042,0,U,57208,999,16916,.31688826E-3,.12509E-3,0
H2SAT (HEINRICH HERTZ),2023-093A,2026-07-15T13:22:22.663200,1.00270363,.0000413,0.0246,98.8333,47.6496,348.1949,0,U,57213,999,1120,0,-.9E-7,0
KUZGTU 1 (RS47S),2023-091AV,2026-07-15T14:40:04.191168,15.30476538,.00100316,97.5051,261.3906,4.8276,355.3059,0,U,57217,999,16872,.23926725E-3,.6982E-4,0
QIANKUN-1,2023-103B,2026-07-15T13:18:22.338144,16.07667897,.00354198,96.1426,239.3970,132.2623,228.1677,0,U,57422,999,17185,.599185E-5,.4724E-4,.1648987E-5
FENGYUN 3F,2023-111A,2026-07-15T13:59:37.984128,14.19943437,.00012667,98.6825,266.0611,76.2327,283.8991,0,U,57490,999,15289,.27087812E-4,.14E-6,0
HJ-2F,2023-116A,2026-07-15T15:28:16.068288,15.22697785,.00065759,97.3845,201.3755,310.8733,49.1933,0,U,57519,999,16308,.16201895E-3,.3707E-4,0
XRISM,2023-137A,2026-07-15T08:50:21.806016,15.12669567,.00078418,31.0008,177.0225,248.1772,111.8032,0,U,57800,999,15713,.10585006E-3,.1997E-4,0
METEOR-M2 4,2024-039A,2026-07-15T14:26:16.611360,14.22432128,.00082602,98.7025,155.5449,87.7614,272.4510,0,U,59051,999,12330,.7888648E-5,-.26E-6,0
GRBBETA,2024-128C,2026-07-15T07:00:46.612224,15.06808761,.00370246,61.9898,117.6465,140.6791,219.7001,0,U,60237,999,11050,.12540191E-3,.1683E-4,0
TRANSPORTER-11 OBJECT A,2024-149A,2026-07-15T03:41:06.446976,15.33338857,.00048843,97.3729,276.0033,116.7853,243.3889,0,U,60468,999,10634,.14979955E-3,.4748E-4,0
WARATAH SEED-1,2024-149B,2026-07-15T04:24:43.309440,15.36618101,.00032188,97.3687,276.7964,120.8221,239.3341,0,U,60469,999,10641,.21714315E-3,.7683E-4,0
PHISAT 2,2024-149C,2026-07-15T05:05:56.673600,15.31425010,.00031727,97.3756,275.2781,124.7003,235.4538,0,U,60470,999,10628,.16426258E-3,.4908E-4,0
LEMUR-2-TOMATOKECHUP,2024-149D,2026-07-15T04:18:39.280320,15.36582532,.00032893,97.3800,278.3072,122.7219,237.4342,0,U,60471,999,10646,.17522388E-3,.6176E-4,0
CONNECTA IOT-1,2024-149E,2026-07-15T04:54:20.221344,15.23741800,.00027933,97.3753,272.0248,142.6007,217.5425,0,U,60472,999,10606,.93189837E-4,.2169E-4,0
LOPEN,2024-149F,2026-07-15T04:46:30.221760,15.40464186,.00028434,97.3779,279.7997,134.5027,225.6452,0,U,60473,999,10657,.21725851E-3,.8717E-4,0
ROCK,2024-149G,2026-07-14T17:32:37.332960,15.40443195,.00031371,97.3777,279.3416,133.2814,226.8694,0,U,60474,999,10650,.22386783E-3,.8979E-4,0
CONNECTA IOT-3,2024-149H,2026-07-15T03:50:13.143840,15.23755203,.00039167,97.3728,271.7253,142.9789,217.1719,0,U,60475,999,10606,.95300181E-4,.2221E-4,0
QUBE,2024-149J,2026-07-15T11:43:59.793600,15.48513012,.00033514,97.3778,283.4942,128.5798,231.5753,0,U,60476,999,10684,.28569855E-3,.15116E-3,0
WREN-1,2024-149L,2026-07-15T05:32:49.097184,15.42628342,.00052812,97.3767,280.6585,150.6924,209.4621,0,U,60478,999,10664,.28939166E-3,.12519E-3,0
